[{"OBJECT_NAME":"STARLINK-4458","OBJECT_ID":"2022-105W","EPOCH":"2026-03-09T15:32:06.517824","MEAN_MOTION":15.05647218,"ECCENTRICITY":0.0002721,"INCLINATION":97.602,"RA_OF_ASC_NODE":311.1246,"ARG_OF_PERICENTER":82.4874,"MEAN_ANOMALY":277.6662,"EPHEMERIS_TYPE":0,"CLASSIFICATION_TYPE":"U","NORAD_CAT_ID":53668,"ELEMENT_SET_NO":999,"REV_AT_EPOCH":19329,"BSTAR":3.4877e-5,"MEAN_MOTION_DOT":4.42e-6,"MEAN_MOTION_DDOT":0},{"OBJECT_NAME":"OBJECT H","OBJECT_ID":"2025-292H","EPOCH":"2026-03-09T22:24:53.558208","MEAN_MOTION":15.06373042,"ECCENTRICITY":0.00142604,"INCLINATION":97.6442,"RA_OF_ASC_NODE":145.7846,"ARG_OF_PERICENTER":348.9217,"MEAN_ANOMALY":11.1694,"EPHEMERIS_TYPE":0,"CLASSIFICATION_TYPE":"U","NORAD_CAT_ID":67000,"ELEMENT_SET_NO":999,"REV_AT_EPOCH":1338,"BSTAR":0.0005462937,"MEAN_MOTION_DOT":8.001e-5,"MEAN_MOTION_DDOT":0}]
